start=new Date('2021-08-27T00:00:00.000Z').valueOf();
sats=[{"TLE_LINE1":"1 47837U 21018BC  21238.34023883 -.00000353  00000-0 -53037-5 0  9994","MEAN_ELEMENT_THEORY":"SGP4","SEMIMAJOR_AXIS":"6930.362","LAUNCH_DATE":"2021-03-11","TLE_LINE2":"2 47837  53.0574 107.2275 0002456  88.4748 271.6521 15.04765844 27237","CLASSIFICATION_TYPE":"U","RCS_SIZE":"LARGE","REF_FRAME":"TEME","EPHEMERIS_TYPE":"0","APOAPSIS":"553.929","PERIOD":"95.696","ARG_OF_PERICENTER":"88.4748","ECCENTRICITY":"0.00024560","FILE":"3103463","GP_ID":"183474158","MEAN_ANOMALY":"271.6521","SITE":"AFETR","ELEMENT_SET_NO":"999","MEAN_MOTION_DDOT":"0.0000000000000","NORAD_CAT_ID":"47837","MEAN_MOTION_DOT":"-0.00000353","EPOCH":"2021-08-26T08:09:56.634912","OBJECT_TYPE":"PAYLOAD","DECAY_DATE":null,"RA_OF_ASC_NODE":"107.2275","MEAN_MOTION":"15.04765844","CENTER_NAME":"EARTH","PERIAPSIS":"550.524","INCLINATION":"53.0574","OBJECT_NAME":"STARLINK-2427","COUNTRY_CODE":"US","TIME_SYSTEM":"UTC","OBJECT_ID":"2021-018BC","BSTAR":"-0.00000530370000","REV_AT_EPOCH":"2723"},{"RA_OF_ASC_NODE":"126.9027","MEAN_MOTION":"15.06403704","CENTER_NAME":"EARTH","PERIAPSIS":"545.861","INCLINATION":"53.0564","OBJECT_NAME":"STARLINK-2429","COUNTRY_CODE":"US","TIME_SYSTEM":"UTC","OBJECT_ID":"2021-018BD","BSTAR":"0.00009389600000","REV_AT_EPOCH":"2695","TLE_LINE1":"1 47838U 21018BD  21238.42029038  .00001117  00000-0  93896-4 0  9995","MEAN_ELEMENT_THEORY":"SGP4","SEMIMAJOR_AXIS":"6925.337","LAUNCH_DATE":"2021-03-11","TLE_LINE2":"2 47838  53.0564 126.9027 0001936  65.1049 295.0141 15.06403704 26950","CLASSIFICATION_TYPE":"U","RCS_SIZE":"LARGE","REF_FRAME":"TEME","EPHEMERIS_TYPE":"0","APOAPSIS":"548.543","PERIOD":"95.592","ARG_OF_PERICENTER":"65.1049","ECCENTRICITY":"0.00019360","FILE":"3103463","GP_ID":"183474410","SITE":"AFETR","MEAN_ANOMALY":"295.0141","ELEMENT_SET_NO":"999","MEAN_MOTION_DDOT":"0.0000000000000","NORAD_CAT_ID":"47838","MEAN_MOTION_DOT":"0.00001117","EPOCH":"2021-08-26T10:05:13.088832","OBJECT_TYPE":"PAYLOAD","DECAY_DATE":null},{"RCS_SIZE":"LARGE","REF_FRAME":"TEME","TLE_LINE2":"2 47839  53.0550 108.2756 0001545  75.2411 284.8758 15.27876347 27220","CLASSIFICATION_TYPE":"U","PERIOD":"94.248","EPHEMERIS_TYPE":"0","APOAPSIS":"483.224","MEAN_ELEMENT_THEORY":"SGP4","TLE_LINE1":"1 47839U 21018BE  21238.36752317  .00003305  00000-0  13250-3 0  9998","SEMIMAJOR_AXIS":"6860.299","LAUNCH_DATE":"2021-03-11","EPOCH":"2021-08-26T08:49:14.001888","MEAN_MOTION_DOT":"0.00003305","DECAY_DATE":null,"OBJECT_TYPE":"PAYLOAD","FILE":"3103463","SITE":"AFETR","GP_ID":"183475156","MEAN_ANOMALY":"284.8758","ARG_OF_PERICENTER":"75.2411","ECCENTRICITY":"0.00015450","NORAD_CAT_ID":"47839","ELEMENT_SET_NO":"999","MEAN_MOTION_DDOT":"0.0000000000000","MEAN_MOTION":"15.27876347","CENTER_NAME":"EARTH","PERIAPSIS":"481.104","RA_OF_ASC_NODE":"108.2756","OBJECT_ID":"2021-018BE","TIME_SYSTEM":"UTC","BSTAR":"0.00013250000000","REV_AT_EPOCH":"2722","OBJECT_NAME":"STARLINK-2431","INCLINATION":"53.0550","COUNTRY_CODE":"US"},{"LAUNCH_DATE":"2021-03-11","SEMIMAJOR_AXIS":"6925.356","TLE_LINE1":"1 47840U 21018BF  21238.32630328 -.00000463  00000-0 -12177-4 0  9995","MEAN_ELEMENT_THEORY":"SGP4","APOAPSIS":"548.827","EPHEMERIS_TYPE":"0","PERIOD":"95.592","TLE_LINE2":"2 47840  53.0529 107.3196 0002319  88.1596 271.9659 15.06397705 27223","CLASSIFICATION_TYPE":"U","REF_FRAME":"TEME","RCS_SIZE":"LARGE","MEAN_MOTION_DDOT":"0.0000000000000","ELEMENT_SET_NO":"999","NORAD_CAT_ID":"47840","ECCENTRICITY":"0.00023190","ARG_OF_PERICENTER":"88.1596","GP_ID":"183473908","SITE":"AFETR","MEAN_ANOMALY":"271.9659","FILE":"3103463","OBJECT_TYPE":"PAYLOAD","DECAY_DATE":null,"MEAN_MOTION_DOT":"-0.00000463","EPOCH":"2021-08-26T07:49:52.603392","RA_OF_ASC_NODE":"107.3196","PERIAPSIS":"545.615","CENTER_NAME":"EARTH","MEAN_MOTION":"15.06397705","COUNTRY_CODE":"US","INCLINATION":"53.0529","OBJECT_NAME":"STARLINK-2432","REV_AT_EPOCH":"2722","BSTAR":"-0.00001217700000","TIME_SYSTEM":"UTC","OBJECT_ID":"2021-018BF"},{"BSTAR":"-0.00010339000000","REV_AT_EPOCH":"2718","OBJECT_ID":"2021-018BG","TIME_SYSTEM":"UTC","COUNTRY_CODE":"US","OBJECT_NAME":"STARLINK-2433","INCLINATION":"53.0551","CENTER_NAME":"EARTH","PERIAPSIS":"545.642","MEAN_MOTION":"15.06400570","RA_OF_ASC_NODE":"108.5174","DECAY_DATE":null,"OBJECT_TYPE":"PAYLOAD","EPOCH":"2021-08-26T01:22:25.023648","MEAN_MOTION_DOT":"-0.00001822","NORAD_CAT_ID":"47841","MEAN_MOTION_DDOT":"0.0000000000000","ELEMENT_SET_NO":"999","FILE":"3103463","MEAN_ANOMALY":"274.3119","GP_ID":"183473659","SITE":"AFETR","ARG_OF_PERICENTER":"85.8129","ECCENTRICITY":"0.00022670","PERIOD":"95.592","EPHEMERIS_TYPE":"0","APOAPSIS":"548.782","RCS_SIZE":"LARGE","REF_FRAME":"TEME","TLE_LINE2":"2 47841  53.0551 108.5174 0002267  85.8129 274.3119 15.06400570 27184","CLASSIFICATION_TYPE":"U","SEMIMAJOR_AXIS":"6925.347","LAUNCH_DATE":"2021-03-11","TLE_LINE1":"1 47841U 21018BG  21238.05723407 -.00001822  00000-0 -10339-3 0  9994","MEAN_ELEMENT_THEORY":"SGP4"},{"MEAN_MOTION":"15.06387058","CENTER_NAME":"EARTH","PERIAPSIS":"545.782","RA_OF_ASC_NODE":"136.7994","TIME_SYSTEM":"UTC","OBJECT_ID":"2021-018BH","BSTAR":"0.00009208700000","REV_AT_EPOCH":"2687","INCLINATION":"53.0557","OBJECT_NAME":"STARLINK-2434","COUNTRY_CODE":"US","TLE_LINE2":"2 47842  53.0557 136.7994 0002125  63.6572 296.4635 15.06387058 26871","CLASSIFICATION_TYPE":"U","RCS_SIZE":"LARGE","REF_FRAME":"TEME","EPHEMERIS_TYPE":"0","APOAPSIS":"548.725","PERIOD":"95.593","MEAN_ELEMENT_THEORY":"SGP4","TLE_LINE1":"1 47842U 21018BH  21238.44149928  .00001090  00000-0  92087-4 0  9994","SEMIMAJOR_AXIS":"6925.388","LAUNCH_DATE":"2021-03-11","MEAN_MOTION_DOT":"0.00001090","EPOCH":"2021-08-26T10:35:45.537792","OBJECT_TYPE":"PAYLOAD","DECAY_DATE":null,"ARG_OF_PERICENTER":"63.6572","ECCENTRICITY":"0.00021250","FILE":"3103463","SITE":"AFETR","GP_ID":"183474910","MEAN_ANOMALY":"296.4635","MEAN_MOTION_DDOT":"0.0000000000000","ELEMENT_SET_NO":"999","NORAD_CAT_ID":"47842"},{"LAUNCH_DATE":"2021-03-11","SEMIMAJOR_AXIS":"6925.357","TLE_LINE1":"1 47843U 21018BJ  21238.41430908  .00001190  00000-0  98808-4 0  9991","MEAN_ELEMENT_THEORY":"SGP4","PERIOD":"95.592","APOAPSIS":"548.577","EPHEMERIS_TYPE":"0","REF_FRAME":"TEME","RCS_SIZE":"LARGE","CLASSIFICATION_TYPE":"U","TLE_LINE2":"2 47843  53.0556 131.9226 0001957  62.2554 297.8633 15.06397336 26900","NORAD_CAT_ID":"47843","ELEMENT_SET_NO":"999","MEAN_MOTION_DDOT":"0.0000000000000","MEAN_ANOMALY":"297.8633","GP_ID":"183474657","SITE":"AFETR","FILE":"3103463","ECCENTRICITY":"0.00019570","ARG_OF_PERICENTER":"62.2554","DECAY_DATE":null,"OBJECT_TYPE":"PAYLOAD","EPOCH":"2021-08-26T09:56:36.304512","MEAN_MOTION_DOT":"0.00001190","RA_OF_ASC_NODE":"131.9226","PERIAPSIS":"545.866","CENTER_NAME":"EARTH","MEAN_MOTION":"15.06397336","COUNTRY_CODE":"US","OBJECT_NAME":"STARLINK-2435","INCLINATION":"53.0556","REV_AT_EPOCH":"2690","BSTAR":"0.00009880800000","OBJECT_ID":"2021-018BJ","TIME_SYSTEM":"UTC"},{"PERIOD":"95.593","EPHEMERIS_TYPE":"0","APOAPSIS":"548.673","RCS_SIZE":"LARGE","REF_FRAME":"TEME","CLASSIFICATION_TYPE":"U","TLE_LINE2":"2 47844  53.0553 126.9256 0002076  56.0693 304.0493 15.06392794 26956","SEMIMAJOR_AXIS":"6925.371","LAUNCH_DATE":"2021-03-11","TLE_LINE1":"1 47844U 21018BK  21238.41292457 -.00000677  00000-0 -26517-4 0  9996","MEAN_ELEMENT_THEORY":"SGP4","DECAY_DATE":null,"OBJECT_TYPE":"PAYLOAD","EPOCH":"2021-08-26T09:54:36.682848","MEAN_MOTION_DOT":"-0.00000677","NORAD_CAT_ID":"47844","ELEMENT_SET_NO":"999","MEAN_MOTION_DDOT":"0.0000000000000","FILE":"3103463","GP_ID":"183473409","SITE":"AFETR","MEAN_ANOMALY":"304.0493","ARG_OF_PERICENTER":"56.0693","ECCENTRICITY":"0.00020760","CENTER_NAME":"EARTH","PERIAPSIS":"545.798","MEAN_MOTION":"15.06392794","RA_OF_ASC_NODE":"126.9256","BSTAR":"-0.00002651700000","REV_AT_EPOCH":"2695","OBJECT_ID":"2021-018BK","TIME_SYSTEM":"UTC","COUNTRY_CODE":"US","OBJECT_NAME":"STARLINK-2446","INCLINATION":"53.0553"},{"SEMIMAJOR_AXIS":"6925.369","LAUNCH_DATE":"2021-03-11","MEAN_ELEMENT_THEORY":"SGP4","TLE_LINE1":"1 47845U 21018BL  21238.43135061 -.00000928  00000-0 -43438-4 0  9996","PERIOD":"95.593","EPHEMERIS_TYPE":"0","APOAPSIS":"548.377","RCS_SIZE":"LARGE","REF_FRAME":"TEME","TLE_LINE2":"2 47845  53.0567 126.8550 0001651  99.9505 260.1670 15.06393412 26962","CLASSIFICATION_TYPE":"U","NORAD_CAT_ID":"47845","ELEMENT_SET_NO":"999","MEAN_MOTION_DDOT":"0.0000000000000","FILE":"3103463","MEAN_ANOMALY":"260.1670","GP_ID":"183474159","SITE":"AFETR","ARG_OF_PERICENTER":"99.9505","ECCENTRICITY":"0.00016510","DECAY_DATE":null,"OBJECT_TYPE":"PAYLOAD","EPOCH":"2021-08-26T10:21:08.692704","MEAN_MOTION_DOT":"-0.00000928","RA_OF_ASC_NODE":"126.8550","CENTER_NAME":"EARTH","PERIAPSIS":"546.090","MEAN_MOTION":"15.06393412","COUNTRY_CODE":"US","OBJECT_NAME":"STARLINK-2453","INCLINATION":"53.0567","BSTAR":"-0.00004343800000","REV_AT_EPOCH":"2696","OBJECT_ID":"2021-018BL","TIME_SYSTEM":"UTC"},{"MEAN_MOTION_DDOT":"0.0000000000000","ELEMENT_SET_NO":"999","NORAD_CAT_ID":"47846","ECCENTRICITY":"0.00021650","ARG_OF_PERICENTER":"60.2668","GP_ID":"183497135","SITE":"AFETR","MEAN_ANOMALY":"299.8536","FILE":"3103480","OBJECT_TYPE":"PAYLOAD","DECAY_DATE":null,"MEAN_MOTION_DOT":"-0.00000701","EPOCH":"2021-08-26T16:37:59.737728","LAUNCH_DATE":"2021-03-11","SEMIMAJOR_AXIS":"6925.364","MEAN_ELEMENT_THEORY":"SGP4","TLE_LINE1":"1 47846U 21018BM  21238.69305252 -.00000701  00000-0 -28156-4 0  9995","APOAPSIS":"548.728","EPHEMERIS_TYPE":"0","PERIOD":"95.592","TLE_LINE2":"2 47846  53.0566 125.6790 0002165  60.2668 299.8536 15.06394940 27055","CLASSIFICATION_TYPE":"U","REF_FRAME":"TEME","RCS_SIZE":"LARGE","COUNTRY_CODE":"US","INCLINATION":"53.0566","OBJECT_NAME":"STARLINK-2456","REV_AT_EPOCH":"2705","BSTAR":"-0.00002815600000","TIME_SYSTEM":"UTC","OBJECT_ID":"2021-018BM","RA_OF_ASC_NODE":"125.6790","PERIAPSIS":"545.730","CENTER_NAME":"EARTH","MEAN_MOTION":"15.06394940"}];
